[{"OBJECT_NAME":"YAOGAN-26","OBJECT_ID":"2014-088A","EPOCH":"2026-03-09T23:55:48.061920","MEAN_MOTION":15.43243059,"ECCENTRICITY":0.0006957,"INCLINATION":97.0675,"RA_OF_ASC_NODE":71.8133,"ARG_OF_PERICENTER":64.3824,"MEAN_ANOMALY":295.8143,"EPHEMERIS_TYPE":0,"CLASSIFICATION_TYPE":"U","NORAD_CAT_ID":40362,"ELEMENT_SET_NO":999,"REV_AT_EPOCH":62238,"BSTAR":0.00079284925,"MEAN_MOTION_DOT":0.00035285,"MEAN_MOTION_DDOT":0},{"OBJECT_NAME":"YAOGAN-35 03C","OBJECT_ID":"2022-088E","EPOCH":"2026-03-09T11:20:59.130240","MEAN_MOTION":15.39002434,"ECCENTRICITY":0.00029739,"INCLINATION":34.9967,"RA_OF_ASC_NODE":77.5598,"ARG_OF_PERICENTER":203.8466,"MEAN_ANOMALY":156.2116,"EPHEMERIS_TYPE":0,"CLASSIFICATION_TYPE":"U","NORAD_CAT_ID":53320,"ELEMENT_SET_NO":999,"REV_AT_EPOCH":20153,"BSTAR":0.00082360226,"MEAN_MOTION_DOT":0.00032803,"MEAN_MOTION_DDOT":0}]
